IXPE                    
1 49954U 21121A   24217.91667824  .00007463  00000+0  53422-3 0  9995
2 49954   0.2317  31.3145 0009119 283.7031 197.6057 14.98866289  5659
